NORAD_CAT_ID,OBJECT_NAME,OBJECT_TYPE,EPOCH,MEAN_MOTION,ECCENTRICITY,INCLINATION,RA_OF_ASC_NODE,ARG_OF_PERICENTER,MEAN_ANOMALY,BSTAR,MEAN_MOTION_DOT,MEAN_MOTION_DDOT,TLE_LINE0,TLE_LINE1,TLE_LINE2,SEMIMAJOR_AXIS,PERIOD,APOGEE,PERIGEE,DECAYED
54767.0,STARLINK-5472,PAYLOAD,2023-02-15 06:03:32,15.08841523,0.0001642,53.2185,24.9294,75.8161,284.3013,0.00013478,1.858e-05,0.0,0 STARLINK-5472,1 54767U 22175K   23046.25245733  .00001858  00000-0  13478-3 0  9990,2 54767  53.2185  24.9294 0001642  75.8161 284.3013 15.08841523  8912,6917.876,95.437,540.877,538.605,0.0
54767.0,STARLINK-5472,PAYLOAD,2023-02-15 21:57:23,15.08845446,0.0001173,53.2173,21.9556,90.2165,269.8962,0.00023306,3.424e-05,0.0,0 STARLINK-5472,1 54767U 22175K   23046.91485276  .00003424  00000-0  23306-3 0  9993,2 54767  53.2173  21.9556 0001173  90.2165 269.8962 15.08845446 11172,6917.864,95.437,540.54,538.917,0.0
54767.0,STARLINK-5472,PAYLOAD,2023-02-16 07:29:40,15.08872273,0.0001203,53.2176,20.1701,91.8395,268.2734,0.00041408,6.314e-05,0.0,0 STARLINK-5472,1 54767U 22175K   23047.31227492  .00006314  00000-0  41408-3 0  9996,2 54767  53.2176  20.1701 0001203  91.8395 268.2734 15.08872273  9078,6917.782,95.436,540.479,538.815,0.0
54767.0,STARLINK-5472,PAYLOAD,2023-02-16 15:26:38,15.08830845,0.0002982,53.219,18.6846,72.0999,288.0318,-0.00012106,-2.214e-05,0.0,0 STARLINK-5472,1 54767U 22175K   23047.64350317 -.00002214  00000-0 -12106-3 0  9995,2 54767  53.2190  18.6846 0002982  72.0999 288.0318 15.08830845  9125,6917.908,95.438,541.836,537.71,0.0
54767.0,STARLINK-5472,PAYLOAD,2023-02-16 21:48:11,15.08808909,0.0001309,53.2179,17.4952,65.3267,294.7862,-0.00040715,-6.756e-05,0.0,0 STARLINK-5472,1 54767U 22175K   23047.90846977 -.00006756  00000-0 -40715-3 0  9998,2 54767  53.2179  17.4952 0001309  65.3267 294.7862 15.08808909 11321,6917.975,95.44,540.746,538.935,0.0
54767.0,STARLINK-5472,PAYLOAD,2023-02-17 05:45:06,15.08832987,0.0001207,53.2173,16.0086,85.9152,274.1978,-0.00014435,-2.584e-05,0.0,0 STARLINK-5472,1 54767U 22175K   23048.23965929 -.00002584  00000-0 -14435-3 0  9999,2 54767  53.2173  16.0086 0001207  85.9152 274.1978 15.08832987  9214,6917.902,95.438,540.602,538.932,0.0
54767.0,STARLINK-5472,PAYLOAD,2023-02-17 08:55:52,15.08836394,0.000113,53.2168,15.413,76.5352,283.5766,-5.3281e-05,-1.136e-05,0.0,0 STARLINK-5472,1 54767U 22175K   23048.37213831 -.00001136  00000-0 -53281-4 0  9997,2 54767  53.2168  15.4130 0001130  76.5352 283.5766 15.08836394 11391,6917.891,95.438,540.538,538.975,0.0
54767.0,STARLINK-5472,PAYLOAD,2023-02-17 15:17:26,15.08827596,0.0002135,53.2173,14.2268,71.5114,288.611,-8.4492e-05,-1.632e-05,0.0,0 STARLINK-5472,1 54767U 22175K   23048.63710930 -.00001632  00000-0 -84492-4 0  9997,2 54767  53.2173  14.2268 0002135  71.5114 288.6110 15.08827596 11431,6917.918,95.438,541.26,538.306,0.0
54767.0,STARLINK-5472,PAYLOAD,2023-02-18 07:11:16,15.08844701,0.0001208,53.2175,11.2485,87.5634,272.5497,6.1713e-05,6.95e-06,0.0,0 STARLINK-5472,1 54767U 22175K   23049.29950139  .00000695  00000-0  61713-4 0  9994,2 54767  53.2175  11.2485 0001208  87.5634 272.5497 15.08844701  9372,6917.866,95.437,540.567,538.895,0.0
54767.0,STARLINK-5472,PAYLOAD,2023-02-18 21:29:46,15.08831699,0.0001188,53.2168,8.5727,78.4516,281.6609,0.00046407,7.104e-05,0.0,0 STARLINK-5472,1 54767U 22175K   23049.89567186  .00007104  00000-0  46407-3 0  9990,2 54767  53.2168   8.5727 0001188  78.4516 281.6609 15.08831699  9465,6917.906,95.438,540.593,538.949,0.0
54767.0,STARLINK-5472,PAYLOAD,2023-02-19 07:02:03,15.08850581,0.0001168,53.217,6.7881,80.2504,279.862,0.00042719,6.519e-05,0.0,0 STARLINK-5472,1 54767U 22175K   23050.29310135  .00006519  00000-0  42719-3 0  9997,2 54767  53.2170   6.7881 0001168  80.2504 279.8620 15.08850581  9525,6917.848,95.437,540.521,538.905,0.0
54767.0,STARLINK-5472,PAYLOAD,2023-02-19 22:55:55,15.08836482,8.91e-05,53.2178,3.8166,97.9523,262.157,0.00011726,1.579e-05,0.0,0 STARLINK-5472,1 54767U 22175K   23050.95550700  .00001579  00000-0  11726-3 0  9999,2 54767  53.2178   3.8166 0000891  97.9523 262.1570 15.08836482  9629,6917.891,95.438,540.373,539.14,0.0
54767.0,STARLINK-5472,PAYLOAD,2023-02-20 06:52:50,15.08854774,9.92e-05,53.2162,2.3294,92.9174,267.1932,0.00018022,2.583e-05,0.0,0 STARLINK-5472,1 54767U 22175K   23051.28669749  .00002583  00000-0  18022-3 0  9992,2 54767  53.2162   2.3294 0000992  92.9174 267.1932 15.08854774  9673,6917.835,95.437,540.386,539.014,0.0
54767.0,STARLINK-5472,PAYLOAD,2023-02-20 13:14:23,15.08849446,8.97e-05,53.2157,1.1391,91.7685,268.341,7.9184e-05,9.73e-06,0.0,0 STARLINK-5472,1 54767U 22175K   23051.55165813  .00000973  00000-0  79184-4 0  9993,2 54767  53.2157   1.1391 0000897  91.7685 268.3410 15.08849446 11879,6917.852,95.437,540.337,539.096,0.0
54767.0,STARLINK-5472,PAYLOAD,2023-02-21 00:22:03,15.08882904,0.0001171,53.2177,359.0578,90.412,269.7006,0.00044369,6.789e-05,0.0,0 STARLINK-5472,1 54767U 22175K   23052.01531794  .00006789  00000-0  44369-3 0  9997,2 54767  53.2177 359.0578 0001171  90.4120 269.7006 15.08882904  9788,6917.749,95.435,540.424,538.804,0.0
54767.0,STARLINK-5472,PAYLOAD,2023-02-21 13:05:09,15.08844344,0.0001203,53.2177,356.6791,109.0854,251.0268,-0.00014102,-2.532e-05,0.0,0 STARLINK-5472,1 54767U 22175K   23052.54524606 -.00002532  00000-0 -14102-3 0  9995,2 54767  53.2177 356.6791 0001203 109.0854 251.0268 15.08844344  9864,6917.867,95.437,540.564,538.9,0.0
54767.0,STARLINK-5472,PAYLOAD,2023-02-21 21:02:05,15.08837211,0.0001329,53.2175,355.1929,110.2753,249.8382,-0.00029164,-4.926e-05,0.0,0 STARLINK-5472,1 54767U 22175K   23052.87644905 -.00004926  00000-0 -29164-3 0  9999,2 54767  53.2175 355.1929 0001329 110.2753 249.8382 15.08837211 12074,6917.889,95.438,540.673,538.835,0.0
54767.0,STARLINK-5472,PAYLOAD,2023-02-22 04:59:00,15.08846733,0.0001446,53.2169,353.706,102.7704,257.345,-7.5038e-05,-1.482e-05,0.0,0 STARLINK-5472,1 54767U 22175K   23053.20764490 -.00001482  00000-0 -75038-4 0  9995,2 54767  53.2169 353.7060 0001446 102.7704 257.3450 15.08846733 12124,6917.86,95.437,540.725,538.724,0.0
54767.0,STARLINK-5472,PAYLOAD,2023-02-22 19:17:29,15.08820428,0.0001329,53.2175,351.0294,112.5712,247.542,-0.00030728,-5.172e-05,0.0,0 STARLINK-5472,1 54767U 22175K   23053.80381542 -.00005172  00000-0 -30728-3 0  9990,2 54767  53.2175 351.0294 0001329 112.5712 247.5420 15.08820428 10050,6917.94,95.439,540.725,538.886,0.0
54767.0,STARLINK-5472,PAYLOAD,2023-02-22 20:52:52,15.08820284,0.0001417,53.2174,350.7318,110.1287,249.9858,-0.00019161,-3.334e-05,0.0,0 STARLINK-5472,1 54767U 22175K   23053.87005712 -.00003334  00000-0 -19161-3 0  9995,2 54767  53.2174 350.7318 0001417 110.1287 249.9858 15.08820284 12223,6917.941,95.439,540.786,538.825,0.0
54767.0,STARLINK-5472,PAYLOAD,2023-02-23 04:49:49,15.08814936,0.000118,53.2173,349.2458,101.703,258.4095,0.00015689,2.208e-05,0.0,0 STARLINK-5472,1 54767U 22175K   23054.20126622  .00002208  00000-0  15689-3 0  9995,2 54767  53.2173 349.2458 0001180 101.7030 258.4095 15.08814936 12279,6917.957,95.439,540.638,539.006,0.0
54767.0,STARLINK-5472,PAYLOAD,2023-02-23 19:08:17,15.08837183,0.0001102,53.217,346.5696,96.2415,263.8703,0.00072206,0.00011221,0.0,0 STARLINK-5472,1 54767U 22175K   23054.79742835  .00011221  00000-0  72206-3 0  9992,2 54767  53.2170 346.5696 0001102  96.2415 263.8703 15.08837183 12364,6917.889,95.438,540.516,538.992,0.0
54767.0,STARLINK-5472,PAYLOAD,2023-02-24 01:29:50,15.08858954,0.0001076,53.2163,345.3803,102.9618,257.1494,0.0014426,0.00022757,0.0,0 STARLINK-5472,1 54767U 22175K   23055.06238547  .00022757  00000-0  14426-2 0  9998,2 54767  53.2163 345.3803 0001076 102.9618 257.1494 15.08858954 10240,6917.822,95.436,540.432,538.943,0.0
54767.0,STARLINK-5472,PAYLOAD,2023-02-24 04:40:36,15.08877943,0.0001136,53.2166,344.7855,96.9535,263.1586,0.0019348,0.00030671,0.0,0 STARLINK-5472,1 54767U 22175K   23055.19486137  .00030671  00000-0  19348-2 0  9994,2 54767  53.2166 344.7855 0001136  96.9535 263.1586 15.08877943 12420,6917.764,95.435,540.415,538.844,0.0
54767.0,STARLINK-5472,PAYLOAD,2023-02-24 18:59:04,15.08848035,0.0001679,53.2167,342.1099,87.1527,272.9657,0.00091326,0.0001428,0.0,0 STARLINK-5472,1 54767U 22175K   23055.79102715  .00014280  00000-0  91326-3 0  9992,2 54767  53.2167 342.1099 0001679  87.1527 272.9657 15.08848035 12515,6917.856,95.437,540.882,538.559,0.0
54767.0,STARLINK-5472,PAYLOAD,2023-02-25 01:20:37,15.08846463,0.0002081,53.2169,340.9207,77.3595,282.7629,0.0010364,0.00016248,0.0,0 STARLINK-5472,1 54767U 22175K   23056.05598849  .00016248  00000-0  10364-2 0  9997,2 54767  53.2169 340.9207 0002081  77.3595 282.7629 15.08846463 10393,6917.861,95.437,541.165,538.286,0.0
54767.0,STARLINK-5472,PAYLOAD,2023-02-25 04:31:23,15.08843035,0.0001209,53.2169,340.3257,65.2083,294.9034,0.0010232,0.00016035,0.0,0 STARLINK-5472,1 54767U 22175K   23056.18846838  .00016035  00000-0  10232-2 0  9993,2 54767  53.2169 340.3257 0001209  65.2083 294.9034 15.08843035 12570,6917.871,95.437,540.572,538.9,0.0
54767.0,STARLINK-5472,PAYLOAD,2023-02-26 04:22:09,15.08872562,0.0001372,53.2173,335.8634,79.9205,280.1942,0.0012159,0.00019133,0.0,0 STARLINK-5472,1 54767U 22175K   23057.18205991  .00019133  00000-0  12159-2 0  9995,2 54767  53.2173 335.8634 0001372  79.9205 280.1942 15.08872562 10561,6917.781,95.435,540.595,538.697,0.0
54767.0,STARLINK-5472,PAYLOAD,2023-02-26 18:40:37,15.08863267,0.0001624,53.2175,333.1868,86.6414,273.4764,0.00058654,9.065e-05,0.0,0 STARLINK-5472,1 54767U 22175K   23057.77821690  .00009065  00000-0  58654-3 0  9994,2 54767  53.2175 333.1868 0001624  86.6414 273.4764 15.08863267 10659,6917.809,95.436,540.798,538.551,0.0
54767.0,STARLINK-5472,PAYLOAD,2023-02-27 02:37:33,15.08868532,0.000156,53.2176,331.7019,67.834,292.2818,0.00075374,0.00011737,0.0,0 STARLINK-5472,1 54767U 22175K   23058.10941277  .00011737  00000-0  75374-3 0  9993,2 54767  53.2176 331.7019 0001560  67.8340 292.2818 15.08868532 12864,6917.793,95.436,540.737,538.579,0.0
